[{"OBJECT_NAME":"STARLINK-31286","OBJECT_ID":"2024-041J","EPOCH":"2026-03-09T00:48:25.216416","MEAN_MOTION":15.27572218,"ECCENTRICITY":0.00018568,"INCLINATION":43.0104,"RA_OF_ASC_NODE":314.1952,"ARG_OF_PERICENTER":259.8906,"MEAN_ANOMALY":100.1736,"EPHEMERIS_TYPE":0,"CLASSIFICATION_TYPE":"U","NORAD_CAT_ID":59082,"ELEMENT_SET_NO":999,"REV_AT_EPOCH":11425,"BSTAR":-8.1247627e-5,"MEAN_MOTION_DOT":-2.497e-5,"MEAN_MOTION_DDOT":0},{"OBJECT_NAME":"SCS-01 G","OBJECT_ID":"2025-100G","EPOCH":"2026-03-09T22:06:35.300160","MEAN_MOTION":15.25626619,"ECCENTRICITY":0.00115239,"INCLINATION":97.3761,"RA_OF_ASC_NODE":145.2582,"ARG_OF_PERICENTER":298.6971,"MEAN_ANOMALY":61.3108,"EPHEMERIS_TYPE":0,"CLASSIFICATION_TYPE":"U","NORAD_CAT_ID":63988,"ELEMENT_SET_NO":999,"REV_AT_EPOCH":4562,"BSTAR":0.00025501168,"MEAN_MOTION_DOT":6.423e-5,"MEAN_MOTION_DDOT":0}]
